{
    "links": {
        "self": "http://www.neowsapp.com/rest/v1/neo/3837557?api_key=iIulBulltgU6a56xZRHN4H3l9WmuAYTsLGpBGhQ2"
    },
    "id": "3837557",
    "neo_reference_id": "3837557",
    "name": "(2019 AN)",
    "designation": "2019 AN",
    "nasa_jpl_url": "http://ssd.jpl.nasa.gov/sbdb.cgi?sstr=3837557",
    "absolute_magnitude_h": 24.2,
    "estimated_diameter": {
        "kilometers": {
            "estimated_diameter_min": 0.0384197891,
            "estimated_diameter_max": 0.0859092601
        },
        "meters": {
            "estimated_diameter_min": 38.4197891064,
            "estimated_diameter_max": 85.9092601232
        },
        "miles": {
            "estimated_diameter_min": 0.0238729428,
            "estimated_diameter_max": 0.0533815229
        },
        "feet": {
            "estimated_diameter_min": 126.0491808919,
            "estimated_diameter_max": 281.8545369825
        }
    },
    "is_potentially_hazardous_asteroid": false,
    "close_approach_data": [
        {
            "close_approach_date": "2019-01-01",
            "close_approach_date_full": "2019-Jan-01 07:58",
            "epoch_date_close_approach": 1546329480000,
            "relative_velocity": {
                "kilometers_per_second": "8.3685770903",
                "kilometers_per_hour": "30126.8775250368",
                "miles_per_hour": "18719.6700932652"
            },
            "miss_distance": {
                "astronomical": "0.1277315348",
                "lunar": "49.6875670372",
                "kilometers": "19108365.537910876",
                "miles": "11873387.7689510488"
            },
            "orbiting_body": "Earth"
        },
        {
            "close_approach_date": "2128-10-30",
            "close_approach_date_full": "2128-Oct-30 08:46",
            "epoch_date_close_approach": 5012181960000,
            "relative_velocity": {
                "kilometers_per_second": "17.4558490595",
                "kilometers_per_hour": "62841.0566143048",
                "miles_per_hour": "39046.9887612606"
            },
            "miss_distance": {
                "astronomical": "0.4705443959",
                "lunar": "183.0417700051",
                "kilometers": "70392439.367076733",
                "miles": "43739833.5796675954"
            },
            "orbiting_body": "Earth"
        }
    ],
    "orbital_data": {
        "orbit_id": "3",
        "orbit_determination_date": "2019-01-09 07:19:38",
        "first_observation_date": "2019-01-02",
        "last_observation_date": "2019-01-09",
        "data_arc_in_days": 7,
        "observations_used": 21,
        "orbit_uncertainty": "8",
        "minimum_orbit_intersection": ".0654772",
        "jupiter_tisserand_invariant": "4.011",
        "epoch_osculation": "2458486.5",
        "eccentricity": ".407440911833305",
        "semi_major_axis": "1.758632597850461",
        "inclination": "7.843734187947707",
        "ascending_node_longitude": "97.18937815620558",
        "orbital_period": "851.8460330388226",
        "perihelion_distance": "1.042093728602495",
        "perihelion_argument": "342.2522162605441",
        "aphelion_distance": "2.475171467098427",
        "perihelion_time": "2458471.259181029158",
        "mean_anomaly": "6.440946622631118",
        "mean_motion": ".4226115824191355",
        "equinox": "J2000",
        "orbit_class": {
            "orbit_class_type": "AMO",
            "orbit_class_description": "Near-Earth asteroid orbits similar to that of 1221 Amor",
            "orbit_class_range": "1.017 AU < q (perihelion) < 1.3 AU"
        }
    },
    "is_sentry_object": false
}